{
  "norad_id": 65088,
  "name": "STARLINK-34594",
  "history": [
    {
      "epoch": "2026-03-28T21:05:44.410272",
      "apogee_km": 475.97337478064856,
      "perigee_km": 474.4400076631746,
      "latitude_deg": 38.92710896804933,
      "longitude_deg": 53.182678079931065,
      "semi_major_axis_km": 6853.343691221911,
      "eccentricity": 0.00011187,
      "inclination_deg": 53.1582,
      "raan_deg": 297.823,
      "arg_perigee_deg": 77.9314,
      "mean_anomaly_deg": 282.1812,
      "mean_motion_rev_day": 15.30202806
    }
  ]
}